IRIDIUM 106             
1 41917U 17003A   25278.51016744  .00000723  00000+0  25125-3 0  9994
2 41917  86.4033 194.9228 0002470  71.3510 288.7954 14.34215854456705
IRIDIUM 103             
1 41918U 17003B   25278.28817663  .00000462  00000+0  15787-3 0  9991
2 41918  86.4037 194.9156 0002687  86.4551 273.6952 14.34216281456696
IRIDIUM 109             
1 41919U 17003C   25278.50380252  .00000568  00000+0  19560-3 0  9996
2 41919  86.4038 194.8811 0002294  85.9611 274.1847 14.34225802456698
IRIDIUM 102             
1 41920U 17003D   25278.26279693  .00000538  00000+0  18491-3 0  9996
2 41920  86.4041 194.9107 0002184  84.2813 275.8632 14.34218761456749
IRIDIUM 105             
1 41921U 17003E   25278.23363409  .00000551  00000+0  18975-3 0  9995
2 41921  86.4029 163.4382 0002281  84.9889 275.1567 14.34226506458591
IRIDIUM 104             
1 41922U 17003F   25278.48478880  .00000556  00000+0  19132-3 0  9994
2 41922  86.4034 194.8572 0002347  93.2890 266.8575 14.34214417456766
IRIDIUM 114             
1 41923U 17003G   25278.49113977  .00000353  00000+0  11904-3 0  9993
2 41923  86.4036 194.8384 0002445  84.2067 275.9407 14.34216004456742
IRIDIUM 108             
1 41924U 17003H   25278.37988941  .00000388  00000+0  13161-3 0  9997
2 41924  86.4021 163.2715 0001976  80.3370 279.8049 14.34215843458586
